CCSDS_OEM_VERS = 1.0
CREATION_DATE  = 2017-05-11T12:07:56
ORIGINATOR     = GMAT USER

META_START
OBJECT_NAME          = MOPSSat_alt_35785_km_RAAN_270_163
OBJECT_ID            = SatId
CENTER_NAME          = Earth
REF_FRAME            = EME2000
TIME_SYSTEM          = UTC
START_TIME           = 2017-01-01T00:00:00.000
USEABLE_START_TIME   = 2017-01-01T00:00:00.000
USEABLE_STOP_TIME    = 2017-01-02T00:00:00.000
STOP_TIME            = 2017-01-02T00:00:00.000
INTERPOLATION        = Lagrange
INTERPOLATION_DEGREE = 7 
META_STOP


                                                                                   

2017-01-01T03:12:30.000   3.341816367882611e+04   1.967472457974690e+04   5.725653890800458e+00   3.553536689946280e-01   3.312656830098956e+00   5.039450702318606e-05
2017-01-01T03:12:40.000   3.342170580001876e+04   1.970784442338998e+04   5.726155882535091e+00   3.530711203139381e-01   3.311311929074113e+00   5.000394032868524e-05
2017-01-01T03:12:50.000   3.342522511200660e+04   1.974095081675194e+04   5.726653971581090e+00   3.507918333800262e-01   3.309966833727840e+00   4.961397002002804e-05
2017-01-01T03:13:00.000   3.342872164740341e+04   1.977404375816345e+04   5.727148163900708e+00   3.485158018845924e-01   3.308621546833485e+00   4.922459498572876e-05
2017-01-01T03:13:10.000   3.343219543877045e+04   1.980712324607630e+04   5.727638465446596e+00   3.462430195275943e-01   3.307276071146890e+00   4.883581411576847e-05
2017-01-01T03:13:20.000   3.343564651856851e+04   1.984018927863303e+04   5.728124882154948e+00   3.439734800470969e-01   3.305930409423856e+00   4.844762630669716e-05
2017-01-01T03:13:30.000   3.343907491919465e+04   1.987324185398672e+04   5.728607419950785e+00   3.417071771969246e-01   3.304584564407314e+00   4.806003045781353e-05
2017-01-01T03:13:40.000   3.344248067298112e+04   1.990628097030016e+04   5.729086084747779e+00   3.394441047468032e-01   3.303238538827358e+00   4.767302547118924e-05
2017-01-01T03:13:50.000   3.344586381216575e+04   1.993930662542976e+04   5.729560882444183e+00   3.371842565036575e-01   3.301892335414286e+00   4.728661025530915e-05
2017-01-01T03:14:00.000   3.344922436893335e+04   1.997231881735172e+04   5.730031818928555e+00   3.349276262826721e-01   3.300545956881212e+00   4.690078372012440e-05
2017-01-01T03:14:10.000   3.345256237539918e+04   2.000531754399362e+04   5.730498900077503e+00   3.326742079186981e-01   3.299199405930992e+00   4.651554477900102e-05
2017-01-01T03:14:20.000   3.345587786368469e+04   2.003830280397917e+04   5.730962131766224e+00   3.304239952153465e-01   3.297852685225915e+00   4.613089234002047e-05
2017-01-01T03:14:30.000   3.345917086584179e+04   2.007127459588315e+04   5.731421519857981e+00   3.281769819958563e-01   3.296505797418133e+00   4.574682531467134e-05
2017-01-01T03:14:40.000   3.346244141387071e+04   2.010423291839990e+04   5.731877070206551e+00   3.259331620914903e-01   3.295158745142874e+00   4.536334261586791e-05
2017-01-01T03:14:50.000   3.346568953967457e+04   2.013717776991455e+04   5.732328788649855e+00   3.236925293710029e-01   3.293811531035917e+00   4.498044316297866e-05
2017-01-01T03:15:00.000   3.346891527509415e+04   2.017010914882163e+04   5.732776681014878e+00   3.214550777185786e-01   3.292464157720732e+00   4.459812587806428e-05
2017-01-01T03:15:10.000   3.347211865190685e+04   2.020302705352424e+04   5.733220753117501e+00   3.192208010339718e-01   3.291116627808523e+00   4.421638968589776e-05
2017-01-01T03:15:20.000   3.347529970179894e+04   2.023593148211917e+04   5.733661010758763e+00   3.169896932535348e-01   3.289768943911276e+00   4.383523351757178e-05
2017-01-01T03:15:30.000   3.347845845640448e+04   2.026882243282144e+04   5.734097459730140e+00   3.147617483216463e-01   3.288421108624347e+00   4.345465630560149e-05
2017-01-01T03:15:40.000   3.348159494728936e+04   2.030169990379342e+04   5.734530105811412e+00   3.125369602021842e-01   3.287073124533529e+00   4.307465698589064e-05
2017-01-01T03:15:50.000   3.348470920602376e+04   2.033456389389918e+04   5.734958954780603e+00   3.103153228274395e-01   3.285724994184190e+00   4.269523448898323e-05
2017-01-01T03:16:00.000   3.348780126410956e+04   2.036741440194785e+04   5.735384012404029e+00   3.080968301492921e-01   3.284376720112330e+00   4.231638774882730e-05
2017-01-01T03:16:10.000   3.349087115299964e+04   2.040025142688895e+04   5.735805284438924e+00   3.058814761259258e-01   3.283028304836647e+00   4.193811570049693e-05
2017-01-01T03:16:20.000   3.349391890404640e+04   2.043307496728641e+04   5.736222776626323e+00   3.036692547575215e-01   3.281679750880112e+00   4.156041728631399e-05
2017-01-01T03:16:30.000   3.349694454854481e+04   2.046588502175263e+04   5.736636494697051e+00   3.014601600566826e-01   3.280331060752264e+00   4.118329145077098e-05
2017-01-01T03:16:40.000   3.349994811772260e+04   2.049868158884816e+04   5.737046444370361e+00   2.992541860552226e-01   3.278982236953381e+00   4.080673714169914e-05
2017-01-01T03:16:50.000   3.350292964274559e+04   2.053146466712122e+04   5.737452631354722e+00   2.970513268013042e-01   3.277633281972940e+00   4.043075330975455e-05
2017-01-01T03:17:00.000   3.350588915471816e+04   2.056423425512517e+04   5.737855061347843e+00   2.948515763583522e-01   3.276284198288927e+00   4.005533890825731e-05
2017-01-01T03:17:10.000   3.350882668468700e+04   2.059699035145757e+04   5.738253740037192e+00   2.926549288023820e-01   3.274934988366277e+00   3.968049289272707e-05
2017-01-01T03:17:20.000   3.351174226364418e+04   2.062973295477921e+04   5.738648673100465e+00   2.904613782205583e-01   3.273585654656181e+00   3.930621422065735e-05
2017-01-01T03:17:30.000   3.351463592252912e+04   2.066246206385151e+04   5.739039866205792e+00   2.882709187087952e-01   3.272236199594547e+00   3.893250185108607e-05
2017-01-01T03:17:40.000   3.351750769222064e+04   2.069517767743754e+04   5.739427325010708e+00   2.860835443782871e-01   3.270886625606165e+00   3.855935474571660e-05
2017-01-01T03:17:50.000   3.352035760357275e+04   2.072787979473144e+04   5.739811055166893e+00   2.838992493269570e-01   3.269536935086963e+00   3.818677186402877e-05
2017-01-01T03:18:00.000   3.352318568737108e+04   2.076056841483739e+04   5.740191062314389e+00   2.817180276740490e-01   3.268187130425626e+00   3.781475216919806e-05
2017-01-01T03:18:10.000   3.352599197434974e+04   2.079324353696642e+04   5.740567352083845e+00   2.795398735469764e-01   3.266837213995513e+00   3.744329462584507e-05
2017-01-01T03:18:20.000   3.352877649512569e+04   2.082590515967240e+04   5.740939930087738e+00   2.773647811322348e-01   3.265487188186260e+00   3.707239820873911e-05
2017-01-01T03:18:30.000   3.353153928026486e+04   2.085855328161595e+04   5.741308801929238e+00   2.751927446243954e-01   3.264137055372287e+00   3.670206189407811e-05
2017-01-01T03:18:40.000   3.353428036026506e+04   2.089118790136705e+04   5.741673973199910e+00   2.730237582392584e-01   3.262786817920994e+00   3.633228466173928e-05
2017-01-01T03:18:50.000   3.353699976560229e+04   2.092380901792745e+04   5.742035449485996e+00   2.708578161788423e-01   3.261436478171268e+00   3.596306548928735e-05
2017-01-01T03:19:00.000   3.353969752669231e+04   2.095641663029911e+04   5.742393236363205e+00   2.686949126602698e-01   3.260086038451322e+00   3.559440335692125e-05
2017-01-01T03:19:10.000   3.354237367389987e+04   2.098901073758359e+04   5.742747339397954e+00   2.665350419090569e-01   3.258735501074644e+00   3.522629724632301e-05
2017-01-01T03:19:20.000   3.354502823753395e+04   2.102159133894254e+04   5.743097764146714e+00   2.643781981618445e-01   3.257384868341639e+00   3.485874614113976e-05
2017-01-01T03:19:30.000   3.354766124784776e+04   2.105415843358021e+04   5.743444516156041e+00   2.622243756673991e-01   3.256034142540446e+00   3.449174902713877e-05
2017-01-01T03:19:40.000   3.355027273503562e+04   2.108671202070425e+04   5.743787600962178e+00   2.600735686891607e-01   3.254683325948600e+00   3.412530489264579e-05
2017-01-01T03:19:50.000   3.355286272923044e+04   2.111925209950663e+04   5.744127024090682e+00   2.579257715065866e-01   3.253332420833849e+00   3.375941272876746e-05
2017-01-01T03:20:00.000   3.355543126050232e+04   2.115177866912622e+04   5.744462791056296e+00   2.557809784174376e-01   3.251981429455793e+00   3.339407152978567e-05
2017-01-01T03:20:10.000   3.355797835886582e+04   2.118429172874701e+04   5.744794907363890e+00   2.536391837313150e-01   3.250630354061840e+00   3.302928029205581e-05
2017-01-01T03:20:20.000   3.356050405424864e+04   2.121679127717097e+04   5.745123378504474e+00   2.515003817975552e-01   3.249279196905057e+00   3.266503801875688e-05
2017-01-01T03:20:30.000   3.356300837653039e+04   2.124927731333575e+04   5.745448209960161e+00   2.493645669712888e-01   3.247927960222655e+00   3.230134371411173e-05
2017-01-01T03:20:40.000   3.356549135552810e+04   2.128174983612188e+04   5.745769407202301e+00   2.472317336260509e-01   3.246576646244056e+00   3.193819638553328e-05
2017-01-01T03:20:50.000   3.356795302105368e+04   2.131420884509973e+04   5.746086975698961e+00   2.451018761046542e-01   3.245225257159871e+00   3.157559503526267e-05
2017-01-01T03:21:00.000   3.357039340285674e+04   2.134665433978409e+04   5.746400920907475e+00   2.429749887681541e-01   3.243873795152943e+00   3.121353866870242e-05
2017-01-01T03:21:10.000   3.357281253063798e+04   2.137908631980316e+04   5.746711248276240e+00   2.408510659846578e-01   3.242522262391388e+00   3.085202629251298e-05
2017-01-01T03:21:20.000   3.357521043401521e+04   2.141150478447659e+04   5.747017963240201e+00   2.387301021572102e-01   3.241170661046136e+00   3.049105691935225e-05
2017-01-01T03:21:30.000   3.357758714254962e+04   2.144390973312907e+04   5.747321071224399e+00   2.366120917029184e-01   3.239818993277988e+00   3.013062956433016e-05
